[{"OBJECT_ID":"1965-020EV","OBJECT_NAME":"SL-8 DEB *","NORAD_CAT_ID":"3931","OBJECT_TYPE":"DEBRIS","PERIOD":"116.586","INCLINATION":"56.0624","ECCENTRICITY":"0.01934050","MEAN_MOTION":"12.35134984","TLE_LINE1":"1  3931U 65020EV  21272.43164319 -.00000092  00000-0 -73321-5 0  9998","TLE_LINE2":"2  3931  56.0624  63.4949 0193405 347.9875  40.8880 12.35134984565140"},{"OBJECT_ID":"1961-015JG","OBJECT_NAME":"THOR ABLESTAR DEB","NORAD_CAT_ID":"3932","OBJECT_TYPE":"DEBRIS","PERIOD":"108.728","INCLINATION":"65.8027","ECCENTRICITY":"0.02861240","MEAN_MOTION":"13.24400782","TLE_LINE1":"1  3932U 61015JG  21272.43024939 -.00000033  00000-0  70335-4 0  9997","TLE_LINE2":"2  3932  65.8027  21.8060 0286124 163.9165 274.6440 13.24400782924089"},{"OBJECT_ID":"1968-097BS","OBJECT_NAME":"COSMOS 252 DEB *","NORAD_CAT_ID":"3938","OBJECT_TYPE":"DEBRIS","PERIOD":"114.973","INCLINATION":"63.0221","ECCENTRICITY":"0.11023430","MEAN_MOTION":"12.52467391","TLE_LINE1":"1  3938U 68097BS  21272.45872231  .00000338  00000-0  24704-3 0  9993","TLE_LINE2":"2  3938  63.0221  80.3603 1102343 194.9940 193.4377 12.52467391355387"},{"OBJECT_ID":"1965-020EY","OBJECT_NAME":"SL-8 DEB *","NORAD_CAT_ID":"3965","OBJECT_TYPE":"DEBRIS","PERIOD":"117.384","INCLINATION":"56.2997","ECCENTRICITY":"0.02576070","MEAN_MOTION":"12.26741563","TLE_LINE1":"1  3965U 65020EY  21272.05125657 -.00000411  00000-0 -25695-2 0  9998","TLE_LINE2":"2  3965  56.2997 154.8354 0257607 304.8751 203.3872 12.26741563538411"},{"OBJECT_ID":"1968-069E","OBJECT_NAME":"DELTA 1 DEB","NORAD_CAT_ID":"3974","OBJECT_TYPE":"DEBRIS","PERIOD":"114.904","INCLINATION":"101.9663","ECCENTRICITY":"0.00350330","MEAN_MOTION":"12.53225025","TLE_LINE1":"1 03974U 68069E   21271.46276378 -.00000042  00000-0  25283-4 0  9999","TLE_LINE2":"2 03974 101.9663 339.8817 0035033 250.8198 124.1081 12.53225025431447"},{"OBJECT_ID":"1968-069F","OBJECT_NAME":"DELTA 1 DEB","NORAD_CAT_ID":"3975","OBJECT_TYPE":"DEBRIS","PERIOD":"114.879","INCLINATION":"101.7811","ECCENTRICITY":"0.00430270","MEAN_MOTION":"12.53492352","TLE_LINE1":"1 03975U 68069F   21271.39719075 -.00000051  00000-0 -35262-4 0  9997","TLE_LINE2":"2 03975 101.7811 334.3797 0043027 261.2973 160.8355 12.53492352432145"},{"OBJECT_ID":"1965-082SE","OBJECT_NAME":"TITAN 3C TRANSTAGE DEB","NORAD_CAT_ID":"3978","OBJECT_TYPE":"DEBRIS","PERIOD":"98.230","INCLINATION":"32.5664","ECCENTRICITY":"0.00366270","MEAN_MOTION":"14.65952546","TLE_LINE1":"1  3978U 65082SE  21272.45844316  .00000212  00000-0  32506-4 0  9992","TLE_LINE2":"2  3978  32.5664  55.3532 0036627 341.2354  18.6949 14.65952546194181"},{"OBJECT_ID":"1961-015JK","OBJECT_NAME":"THOR ABLESTAR DEB","NORAD_CAT_ID":"4005","OBJECT_TYPE":"DEBRIS","PERIOD":"104.640","INCLINATION":"66.7508","ECCENTRICITY":"0.00910110","MEAN_MOTION":"13.76149307","TLE_LINE1":"1  4005U 61015JK  21272.16202498  .00000086  00000-0  15986-3 0  9994","TLE_LINE2":"2  4005  66.7508 180.7514 0091011   0.8178 147.1321 13.76149307651108"},{"OBJECT_ID":"1968-091BY","OBJECT_NAME":"COSMOS 249 DEB *","NORAD_CAT_ID":"4008","OBJECT_TYPE":"DEBRIS","PERIOD":"104.177","INCLINATION":"62.8536","ECCENTRICITY":"0.05812700","MEAN_MOTION":"13.82265049","TLE_LINE1":"1  4008U 68091BY  21271.92840806  .00000160  00000-0  75154-4 0  9999","TLE_LINE2":"2  4008  62.8536  72.4715 0581270 356.8031   2.9355 13.82265049600795"},{"OBJECT_ID":"1961-015JM","OBJECT_NAME":"THOR ABLESTAR DEB","NORAD_CAT_ID":"4014","OBJECT_TYPE":"DEBRIS","PERIOD":"117.221","INCLINATION":"67.6252","ECCENTRICITY":"0.08112450","MEAN_MOTION":"12.28450550","TLE_LINE1":"1  4014U 61015JM  21272.45350924  .00000021  00000-0  19235-3 0  9994","TLE_LINE2":"2  4014  67.6252  72.0699 0811245  26.7060 355.0585 12.28450550702747"},{"OBJECT_ID":"1961-004G","OBJECT_NAME":"SCOUT X-1 DEB","NORAD_CAT_ID":"4026","OBJECT_TYPE":"DEBRIS","PERIOD":"104.334","INCLINATION":"38.8378","ECCENTRICITY":"0.05487960","MEAN_MOTION":"13.80181141","TLE_LINE1":"1  4026U 61004G   21272.46821447  .00003680  00000-0  11187-2 0  9990","TLE_LINE2":"2  4026  38.8378 342.8619 0548796 240.6485 113.8364 13.80181141893523"},{"OBJECT_ID":"1961-015JQ","OBJECT_NAME":"THOR ABLESTAR DEB","NORAD_CAT_ID":"4028","OBJECT_TYPE":"DEBRIS","PERIOD":"99.057","INCLINATION":"66.7556","ECCENTRICITY":"0.01140250","MEAN_MOTION":"14.53704672","TLE_LINE1":"1  4028U 61015JQ  21272.53687787  .00000299  00000-0  88685-4 0  9991","TLE_LINE2":"2  4028  66.7556 359.3596 0114025 239.4253 119.5570 14.53704672122891"},{"OBJECT_ID":"1969-070C","OBJECT_NAME":"SL-8 DEB","NORAD_CAT_ID":"4084","OBJECT_TYPE":"DEBRIS","PERIOD":"99.574","INCLINATION":"74.0659","ECCENTRICITY":"0.00232110","MEAN_MOTION":"14.46158984","TLE_LINE1":"1 04084U 69070C   21271.44153010  .00000005  00000-0  88357-5 0  9990","TLE_LINE2":"2 04084  74.0659 286.4753 0023211 260.6620  99.1914 14.46158984746667"},{"OBJECT_ID":"1969-082CP","OBJECT_NAME":"THORAD AGENA D DEB","NORAD_CAT_ID":"4133","OBJECT_TYPE":"DEBRIS","PERIOD":"97.736","INCLINATION":"69.9168","ECCENTRICITY":"0.00413050","MEAN_MOTION":"14.73353785","TLE_LINE1":"1  4133U 69082CP  21272.21471671  .00001190  00000-0  19303-3 0  9999","TLE_LINE2":"2  4133  69.9168 359.5499 0041305 258.2709 101.3800 14.73353785734320"},{"OBJECT_ID":"1969-082DP","OBJECT_NAME":"THORAD AGENA D DEB","NORAD_CAT_ID":"4135","OBJECT_TYPE":"DEBRIS","PERIOD":"101.258","INCLINATION":"69.9814","ECCENTRICITY":"0.00454700","MEAN_MOTION":"14.22111422","TLE_LINE1":"1 04135U 69082DP  21271.47382034  .00000112  00000-0  75304-4 0  9999","TLE_LINE2":"2 04135  69.9814  63.1974 0045470  71.2283 289.3761 14.22111422686359"},{"OBJECT_ID":"1969-082AJ","OBJECT_NAME":"THORAD AGENA D DEB","NORAD_CAT_ID":"4141","OBJECT_TYPE":"DEBRIS","PERIOD":"98.319","INCLINATION":"69.8803","ECCENTRICITY":"0.00491110","MEAN_MOTION":"14.64619007","TLE_LINE1":"1 04141U 69082AJ  21271.52487899  .00000830  00000-0  16700-3 0  9998","TLE_LINE2":"2 04141  69.8803  87.1970 0049111 138.1297 222.3617 14.64619007730534"},{"OBJECT_ID":"1969-082M","OBJECT_NAME":"THORAD AGENA D DEB","NORAD_CAT_ID":"4143","OBJECT_TYPE":"DEBRIS","PERIOD":"101.580","INCLINATION":"70.1111","ECCENTRICITY":"0.00247790","MEAN_MOTION":"14.17596830","TLE_LINE1":"1  4143U 69082M   21272.18363374  .00000272  00000-0  16037-3 0  9997","TLE_LINE2":"2  4143  70.1111  97.1441 0024779 285.6970  74.1414 14.17596830674313"},{"OBJECT_ID":"1969-082N","OBJECT_NAME":"THORAD AGENA D DEB","NORAD_CAT_ID":"4144","OBJECT_TYPE":"DEBRIS","PERIOD":"99.272","INCLINATION":"70.0807","ECCENTRICITY":"0.00404190","MEAN_MOTION":"14.50558880","TLE_LINE1":"1 04144U 69082N   21271.48051973  .00000418  00000-0  12127-3 0  9997","TLE_LINE2":"2 04144  70.0807 302.3331 0040419 115.0530 245.4810 14.50558880715815"},{"OBJECT_ID":"1969-082P","OBJECT_NAME":"THORAD AGENA D DEB","NORAD_CAT_ID":"4145","OBJECT_TYPE":"DEBRIS","PERIOD":"102.044","INCLINATION":"70.0592","ECCENTRICITY":"0.00574340","MEAN_MOTION":"14.11159296","TLE_LINE1":"1  4145U 69082P   21272.11778768 -.00000334  00000-0 -15258-3 0  9994","TLE_LINE2":"2  4145  70.0592 314.2623 0057434  54.5511 306.0945 14.11159296675154"},{"OBJECT_ID":"1969-082T","OBJECT_NAME":"THORAD AGENA D DEB","NORAD_CAT_ID":"4149","OBJECT_TYPE":"DEBRIS","PERIOD":"101.614","INCLINATION":"70.3042","ECCENTRICITY":"0.00392160","MEAN_MOTION":"14.17125621","TLE_LINE1":"1  4149U 69082T   21272.19317575  .00000023  00000-0  37666-4 0  9992","TLE_LINE2":"2  4149  70.3042 104.7365 0039216 319.7329  40.0886 14.17125621674943"},{"OBJECT_ID":"1969-082W","OBJECT_NAME":"THORAD AGENA D DEB","NORAD_CAT_ID":"4154","OBJECT_TYPE":"DEBRIS","PERIOD":"102.435","INCLINATION":"70.0678","ECCENTRICITY":"0.00501470","MEAN_MOTION":"14.05768426","TLE_LINE1":"1  4154U 69082W   21271.70964896 -.00000088  00000-0 -20695-4 0  9995","TLE_LINE2":"2  4154  70.0678 290.9161 0050147 231.3082 128.3539 14.05768426407801"},{"OBJECT_ID":"1969-082X","OBJECT_NAME":"THORAD AGENA D DEB","NORAD_CAT_ID":"4155","OBJECT_TYPE":"DEBRIS","PERIOD":"100.554","INCLINATION":"70.0518","ECCENTRICITY":"0.00585400","MEAN_MOTION":"14.32072733","TLE_LINE1":"1  4155U 69082X   21272.56305733  .00000267  00000-0  11839-3 0  9996","TLE_LINE2":"2  4155  70.0518  10.9644 0058540  78.5528 282.2164 14.32072733693071"},{"OBJECT_ID":"1969-082Z","OBJECT_NAME":"THORAD AGENA D DEB","NORAD_CAT_ID":"4157","OBJECT_TYPE":"DEBRIS","PERIOD":"97.757","INCLINATION":"70.0184","ECCENTRICITY":"0.00367830","MEAN_MOTION":"14.73046711","TLE_LINE1":"1 04157U 69082Z   21271.47138151  .00001092  00000-0  17951-3 0  9993","TLE_LINE2":"2 04157  70.0184  84.2191 0036783 150.7487 209.5729 14.73046711738357"},{"OBJECT_ID":"1969-082AA","OBJECT_NAME":"THORAD AGENA D DEB","NORAD_CAT_ID":"4158","OBJECT_TYPE":"DEBRIS","PERIOD":"102.016","INCLINATION":"70.0041","ECCENTRICITY":"0.00470410","MEAN_MOTION":"14.11542200","TLE_LINE1":"1  4158U 69082AA  21272.52580528  .00000368  00000-0  23078-3 0  9992","TLE_LINE2":"2  4158  70.0041 318.1927 0047041 328.5330  31.2971 14.11542200672113"},{"OBJECT_ID":"1969-082AC","OBJECT_NAME":"THORAD AGENA D DEB","NORAD_CAT_ID":"4160","OBJECT_TYPE":"DEBRIS","PERIOD":"94.924","INCLINATION":"70.0381","ECCENTRICITY":"0.00257010","MEAN_MOTION":"15.17001614","TLE_LINE1":"1  4160U 69082AC  21272.16623896  .00009160  00000-0  46377-3 0  9997","TLE_LINE2":"2  4160  70.0381  75.5043 0025701 298.7841  61.0747 15.17001614758900"},{"OBJECT_ID":"1969-082AD","OBJECT_NAME":"THORAD AGENA D DEB","NORAD_CAT_ID":"4161","OBJECT_TYPE":"DEBRIS","PERIOD":"102.931","INCLINATION":"70.0194","ECCENTRICITY":"0.00599540","MEAN_MOTION":"13.98992562","TLE_LINE1":"1 04161U 69082AD  21271.49033427 -.00000023  00000-0  20495-4 0  9992","TLE_LINE2":"2 04161  70.0194 310.3589 0059954  23.9384 336.4489 13.98992562653730"}]